start=new Date('2022-12-15T00:00:00.000Z').valueOf();
sats=[{"APOAPSIS":"541.184","MEAN_ELEMENT_THEORY":"SGP4","TLE_LINE1":"1 52576U 22051AS  22348.81706998  .00000423  00000-0  44671-4 0  9997","FILE":"3699783","TLE_LINE2":"2 52576  53.2184  20.2539 0002111  33.3645 326.7480 15.08847003 33383","ELEMENT_SET_NO":"999","RCS_SIZE":"LARGE","MEAN_MOTION_DOT":"0.00000423","ECCENTRICITY":"0.00021110","TIME_SYSTEM":"UTC","CLASSIFICATION_TYPE":"U","REF_FRAME":"TEME","EPOCH":"2022-12-14T19:36:34.846272","EPHEMERIS_TYPE":"0","MEAN_MOTION_DDOT":"0.0000000000000","PERIOD":"95.437","NORAD_CAT_ID":"52576","OBJECT_TYPE":"PAYLOAD","RA_OF_ASC_NODE":"20.2539","CENTER_NAME":"EARTH","SITE":"AFWTR","ARG_OF_PERICENTER":"33.3645","MEAN_MOTION":"15.08847003","BSTAR":"0.00004467100000","REV_AT_EPOCH":"3338","OBJECT_ID":"2022-051AS","LAUNCH_DATE":"2022-05-13","OBJECT_NAME":"STARLINK-3932","MEAN_ANOMALY":"326.7480","DECAY_DATE":null,"COUNTRY_CODE":"US","SEMIMAJOR_AXIS":"6917.859","GP_ID":"220416320","PERIAPSIS":"538.264","INCLINATION":"53.2184"},{"ECCENTRICITY":"0.00021520","MEAN_MOTION_DOT":"-0.00000823","RCS_SIZE":"LARGE","REF_FRAME":"TEME","CLASSIFICATION_TYPE":"U","TIME_SYSTEM":"UTC","EPHEMERIS_TYPE":"0","EPOCH":"2022-12-14T11:17:44.834784","TLE_LINE1":"1 52577U 22051AT  22348.47065781 -.00000823  00000-0 -33579-4 0  9999","MEAN_ELEMENT_THEORY":"SGP4","APOAPSIS":"541.253","TLE_LINE2":"2 52577  53.2160  36.8340 0002152  38.4851 321.6294 15.08833699 33058","FILE":"3698874","ELEMENT_SET_NO":"999","REV_AT_EPOCH":"3305","BSTAR":"-0.00003357900000","MEAN_MOTION":"15.08833699","ARG_OF_PERICENTER":"38.4851","OBJECT_NAME":"STARLINK-3836","MEAN_ANOMALY":"321.6294","LAUNCH_DATE":"2022-05-13","OBJECT_ID":"2022-051AT","GP_ID":"220367810","SEMIMAJOR_AXIS":"6917.900","COUNTRY_CODE":"US","DECAY_DATE":null,"INCLINATION":"53.2160","PERIAPSIS":"538.276","NORAD_CAT_ID":"52577","MEAN_MOTION_DDOT":"0.0000000000000","PERIOD":"95.438","SITE":"AFWTR","CENTER_NAME":"EARTH","RA_OF_ASC_NODE":"36.8340","OBJECT_TYPE":"PAYLOAD"},{"NORAD_CAT_ID":"52578","MEAN_MOTION_DDOT":"0.0000000000000","PERIOD":"95.438","OBJECT_TYPE":"PAYLOAD","SITE":"AFWTR","RA_OF_ASC_NODE":"35.0285","CENTER_NAME":"EARTH","OBJECT_ID":"2022-051AU","LAUNCH_DATE":"2022-05-13","MEAN_ANOMALY":"323.5907","OBJECT_NAME":"STARLINK-3833","BSTAR":"0.00006520800000","MEAN_MOTION":"15.08836857","ARG_OF_PERICENTER":"36.5252","REV_AT_EPOCH":"3311","PERIAPSIS":"538.057","INCLINATION":"53.2173","SEMIMAJOR_AXIS":"6917.890","COUNTRY_CODE":"US","DECAY_DATE":null,"GP_ID":"220410835","TLE_LINE2":"2 52578  53.2173  35.0285 0002455  36.5252 323.5907 15.08836857 33110","FILE":"3699647","MEAN_ELEMENT_THEORY":"SGP4","APOAPSIS":"541.453","TLE_LINE1":"1 52578U 22051AU  22348.87178048  .00000749  00000-0  65208-4 0  9994","ELEMENT_SET_NO":"999","TIME_SYSTEM":"UTC","REF_FRAME":"TEME","CLASSIFICATION_TYPE":"U","MEAN_MOTION_DOT":"0.00000749","RCS_SIZE":"LARGE","ECCENTRICITY":"0.00024550","EPHEMERIS_TYPE":"0","EPOCH":"2022-12-14T20:55:21.833472"},{"ELEMENT_SET_NO":"999","APOAPSIS":"541.473","MEAN_ELEMENT_THEORY":"SGP4","TLE_LINE1":"1 52579U 22051AV  22348.86073392  .00000598  00000-0  55658-4 0  9990","FILE":"3699647","TLE_LINE2":"2 52579  53.2181  35.0748 0002504  34.6909 325.4246 15.08841351 33119","EPOCH":"2022-12-14T20:39:27.410688","EPHEMERIS_TYPE":"0","RCS_SIZE":"LARGE","MEAN_MOTION_DOT":"0.00000598","ECCENTRICITY":"0.00025040","TIME_SYSTEM":"UTC","CLASSIFICATION_TYPE":"U","REF_FRAME":"TEME","OBJECT_TYPE":"PAYLOAD","CENTER_NAME":"EARTH","RA_OF_ASC_NODE":"35.0748","SITE":"AFWTR","PERIOD":"95.437","MEAN_MOTION_DDOT":"0.0000000000000","NORAD_CAT_ID":"52579","DECAY_DATE":null,"COUNTRY_CODE":"US","SEMIMAJOR_AXIS":"6917.876","GP_ID":"220410580","PERIAPSIS":"538.009","INCLINATION":"53.2181","MEAN_MOTION":"15.08841351","ARG_OF_PERICENTER":"34.6909","BSTAR":"0.00005565800000","REV_AT_EPOCH":"3311","LAUNCH_DATE":"2022-05-13","OBJECT_ID":"2022-051AV","MEAN_ANOMALY":"325.4246","OBJECT_NAME":"STARLINK-3893"},{"INCLINATION":"53.2191","PERIAPSIS":"538.079","SEMIMAJOR_AXIS":"6917.866","COUNTRY_CODE":"US","DECAY_DATE":null,"GP_ID":"220409339","OBJECT_ID":"2022-051AW","LAUNCH_DATE":"2022-05-13","OBJECT_NAME":"STARLINK-3919","MEAN_ANOMALY":"332.7841","BSTAR":"0.00003989400000","ARG_OF_PERICENTER":"27.3277","MEAN_MOTION":"15.08844599","REV_AT_EPOCH":"3311","OBJECT_TYPE":"PAYLOAD","SITE":"AFWTR","CENTER_NAME":"EARTH","RA_OF_ASC_NODE":"35.0628","NORAD_CAT_ID":"52580","PERIOD":"95.437","MEAN_MOTION_DDOT":"0.0000000000000","EPHEMERIS_TYPE":"0","EPOCH":"2022-12-14T20:44:45.531168","TIME_SYSTEM":"UTC","REF_FRAME":"TEME","CLASSIFICATION_TYPE":"U","MEAN_MOTION_DOT":"0.00000347","RCS_SIZE":"LARGE","ECCENTRICITY":"0.00023890","ELEMENT_SET_NO":"999","FILE":"3699647","TLE_LINE2":"2 52580  53.2191  35.0628 0002389  27.3277 332.7841 15.08844599 33116","APOAPSIS":"541.384","MEAN_ELEMENT_THEORY":"SGP4","TLE_LINE1":"1 52580U 22051AW  22348.86441587  .00000347  00000-0  39894-4 0  9993"},{"ELEMENT_SET_NO":"999","FILE":"3699783","TLE_LINE2":"2 52581  53.2200  20.2853 0002510  32.0691 328.0453 15.08849603 33380","APOAPSIS":"541.452","MEAN_ELEMENT_THEORY":"SGP4","TLE_LINE1":"1 52581U 22051AX  22348.81243121  .00002015  00000-0  14465-3 0  9993","EPHEMERIS_TYPE":"0","EPOCH":"2022-12-14T19:29:54.056544","TIME_SYSTEM":"UTC","REF_FRAME":"TEME","CLASSIFICATION_TYPE":"U","MEAN_MOTION_DOT":"0.00002015","RCS_SIZE":"LARGE","ECCENTRICITY":"0.00025100","OBJECT_TYPE":"PAYLOAD","SITE":"AFWTR","RA_OF_ASC_NODE":"20.2853","CENTER_NAME":"EARTH","NORAD_CAT_ID":"52581","PERIOD":"95.437","MEAN_MOTION_DDOT":"0.0000000000000","PERIAPSIS":"537.980","INCLINATION":"53.2200","SEMIMAJOR_AXIS":"6917.851","COUNTRY_CODE":"US","DECAY_DATE":null,"GP_ID":"220416318","LAUNCH_DATE":"2022-05-13","OBJECT_ID":"2022-051AX","MEAN_ANOMALY":"328.0453","OBJECT_NAME":"STARLINK-3915","BSTAR":"0.00014465000000","MEAN_MOTION":"15.08849603","ARG_OF_PERICENTER":"32.0691","REV_AT_EPOCH":"3338"},{"ELEMENT_SET_NO":"999","FILE":"3699647","TLE_LINE2":"2 52582  53.2196  20.2509 0002437  31.7145 328.3994 15.08849593 33315","TLE_LINE1":"1 52582U 22051AY  22348.81979606 -.00000201  00000-0  55224-5 0  9994","APOAPSIS":"541.402","MEAN_ELEMENT_THEORY":"SGP4","EPHEMERIS_TYPE":"0","EPOCH":"2022-12-14T19:40:30.379584","REF_FRAME":"TEME","CLASSIFICATION_TYPE":"U","TIME_SYSTEM":"UTC","ECCENTRICITY":"0.00024370","MEAN_MOTION_DOT":"-0.00000201","RCS_SIZE":"LARGE","SITE":"AFWTR","RA_OF_ASC_NODE":"20.2509","CENTER_NAME":"EARTH","OBJECT_TYPE":"PAYLOAD","NORAD_CAT_ID":"52582","MEAN_MOTION_DDOT":"0.0000000000000","PERIOD":"95.437","PERIAPSIS":"538.030","INCLINATION":"53.2196","GP_ID":"220410336","SEMIMAJOR_AXIS":"6917.851","DECAY_DATE":null,"COUNTRY_CODE":"US","OBJECT_NAME":"STARLINK-3886","MEAN_ANOMALY":"328.3994","LAUNCH_DATE":"2022-05-13","OBJECT_ID":"2022-051AY","REV_AT_EPOCH":"3331","BSTAR":"0.00000552240000","MEAN_MOTION":"15.08849593","ARG_OF_PERICENTER":"31.7145"},{"RCS_SIZE":"LARGE","MEAN_MOTION_DOT":"-0.00001104","ECCENTRICITY":"0.00025330","TIME_SYSTEM":"UTC","CLASSIFICATION_TYPE":"U","REF_FRAME":"TEME","EPOCH":"2022-12-14T19:24:35.876448","EPHEMERIS_TYPE":"0","MEAN_ELEMENT_THEORY":"SGP4","APOAPSIS":"541.503","TLE_LINE1":"1 52583U 22051AZ  22348.80874857 -.00001104  00000-0 -51265-4 0  9990","TLE_LINE2":"2 52583  53.2175  20.3075 0002533  34.2834 325.8322 15.08838163 33310","FILE":"3699647","ELEMENT_SET_NO":"999","MEAN_MOTION":"15.08838163","ARG_OF_PERICENTER":"34.2834","BSTAR":"-0.00005126500000","REV_AT_EPOCH":"3331","OBJECT_ID":"2022-051AZ","LAUNCH_DATE":"2022-05-13","MEAN_ANOMALY":"325.8322","OBJECT_NAME":"STARLINK-3895","DECAY_DATE":null,"COUNTRY_CODE":"US","SEMIMAJOR_AXIS":"6917.886","GP_ID":"220411081","INCLINATION":"53.2175","PERIAPSIS":"537.999","PERIOD":"95.438","MEAN_MOTION_DDOT":"0.0000000000000","NORAD_CAT_ID":"52583","OBJECT_TYPE":"PAYLOAD","CENTER_NAME":"EARTH","RA_OF_ASC_NODE":"20.3075","SITE":"AFWTR"},{"REV_AT_EPOCH":"3338","BSTAR":"0.00003641700000","MEAN_MOTION":"15.08845802","ARG_OF_PERICENTER":"22.5485","OBJECT_NAME":"STARLINK-3922","MEAN_ANOMALY":"337.5647","LAUNCH_DATE":"2022-05-13","OBJECT_ID":"2022-051BA","GP_ID":"220416120","SEMIMAJOR_AXIS":"6917.863","DECAY_DATE":null,"COUNTRY_CODE":"US","INCLINATION":"53.2185","PERIAPSIS":"537.519","NORAD_CAT_ID":"52584","PERIOD":"95.437","MEAN_MOTION_DDOT":"0.0000000000000","SITE":"AFWTR","CENTER_NAME":"EARTH","RA_OF_ASC_NODE":"20.2779","OBJECT_TYPE":"PAYLOAD","ECCENTRICITY":"0.00031920","MEAN_MOTION_DOT":"0.00000291","RCS_SIZE":"LARGE","REF_FRAME":"TEME","CLASSIFICATION_TYPE":"U","TIME_SYSTEM":"UTC","EPHEMERIS_TYPE":"0","EPOCH":"2022-12-14T19:35:12.124320","TLE_LINE1":"1 52584U 22051BA  22348.81611255  .00000291  00000-0  36417-4 0  9999","MEAN_ELEMENT_THEORY":"SGP4","APOAPSIS":"541.936","FILE":"3699783","TLE_LINE2":"2 52584  53.2185  20.2779 0003192  22.5485 337.5647 15.08845802 33381","ELEMENT_SET_NO":"999"},{"PERIAPSIS":"537.963","INCLINATION":"53.2181","GP_ID":"220410086","COUNTRY_CODE":"US","DECAY_DATE":null,"SEMIMAJOR_AXIS":"6917.901","MEAN_ANOMALY":"330.3120","OBJECT_NAME":"STARLINK-3906","LAUNCH_DATE":"2022-05-13","OBJECT_ID":"2022-051BB","REV_AT_EPOCH":"3331","MEAN_MOTION":"15.08833400","ARG_OF_PERICENTER":"29.8020","BSTAR":"-0.00006669900000","CENTER_NAME":"EARTH","RA_OF_ASC_NODE":"20.3449","SITE":"AFWTR","OBJECT_TYPE":"PAYLOAD","PERIOD":"95.438","MEAN_MOTION_DDOT":"0.0000000000000","NORAD_CAT_ID":"52585","EPOCH":"2022-12-14T19:14:00.993696","EPHEMERIS_TYPE":"0","CLASSIFICATION_TYPE":"U","REF_FRAME":"TEME","TIME_SYSTEM":"UTC","ECCENTRICITY":"0.00026060","RCS_SIZE":"LARGE","MEAN_MOTION_DOT":"-0.00001350","ELEMENT_SET_NO":"999","FILE":"3699647","TLE_LINE2":"2 52585  53.2181  20.3449 0002606  29.8020 330.3120 15.08833400 33318","TLE_LINE1":"1 52585U 22051BB  22348.80140039 -.00001350  00000-0 -66699-4 0  9990","MEAN_ELEMENT_THEORY":"SGP4","APOAPSIS":"541.568"}];
